NORAD_CAT_ID,OBJECT_NAME,OBJECT_TYPE,EPOCH,MEAN_MOTION,ECCENTRICITY,INCLINATION,RA_OF_ASC_NODE,ARG_OF_PERICENTER,MEAN_ANOMALY,BSTAR,MEAN_MOTION_DOT,MEAN_MOTION_DDOT,TLE_LINE0,TLE_LINE1,TLE_LINE2,SEMIMAJOR_AXIS,PERIOD,APOGEE,PERIGEE,DECAYED
53987.0,STARLINK-5112,PAYLOAD,2023-10-12 04:18:29,15.08869569,0.000158,53.2168,202.5864,113.9892,246.1266,0.0018825,0.00029823,0.0,0 STARLINK-5112,1 53987U 22125Z   23285.17950758  .00029823  00000-0  18825-2 0  9996,2 53987  53.2168 202.5864 0001580 113.9892 246.1266 15.08869569 56750,6917.79,95.436,540.748,538.562,0.0
53987.0,STARLINK-5112,PAYLOAD,2023-10-12 21:47:44,15.08859202,0.0001382,53.2167,199.3194,106.8595,253.2549,0.001599,0.00025265,0.0,0 STARLINK-5112,1 53987U 22125Z   23285.90814895  .00025265  00000-0  15990-2 0  9994,2 53987  53.2167 199.3194 0001382 106.8595 253.2549 15.08859202 56799,6917.822,95.436,540.643,538.731,0.0
53987.0,STARLINK-5112,PAYLOAD,2023-10-13 00:58:30,15.08866116,0.000137,53.2169,198.7237,95.0277,265.0871,0.0020527,0.00032555,0.0,0 STARLINK-5112,1 53987U 22125Z   23286.04062825  .00032555  00000-0  20527-2 0  9990,2 53987  53.2169 198.7237 0001370  95.0277 265.0871 15.08866116 56886,6917.801,95.436,540.613,538.718,0.0
53987.0,STARLINK-5112,PAYLOAD,2023-10-13 21:38:30,15.08876838,0.0001452,53.2172,194.8556,110.9977,249.1171,0.0022672,0.00036016,0.0,0 STARLINK-5112,1 53987U 22125Z   23286.90174344  .00036016  00000-0  22672-2 0  9994,2 53987  53.2172 194.8556 0001452 110.9977 249.1171 15.08876838 56941,6917.768,95.435,540.637,538.628,0.0
53987.0,STARLINK-5112,PAYLOAD,2023-10-14 00:49:16,15.08882275,0.0001297,53.2168,194.2613,75.5186,284.595,0.0022532,0.00035796,0.0,0 STARLINK-5112,1 53987U 22125Z   23287.03422178  .00035796  00000-0  22532-2 0  9999,2 53987  53.2168 194.2613 0001297  75.5186 284.5950 15.08882275 57030,6917.751,95.435,540.513,538.719,0.0
53987.0,STARLINK-5112,PAYLOAD,2023-10-14 10:21:35,15.0885517,0.000144,53.2173,192.4776,82.2834,277.8322,0.0013731,0.00021641,0.0,0 STARLINK-5112,1 53987U 22125Z   23287.43166285  .00021641  00000-0  13731-2 0  9992,2 53987  53.2173 192.4776 0001440  82.2834 277.8322 15.08855170 57099,6917.834,95.437,540.695,538.703,0.0
53987.0,STARLINK-5112,PAYLOAD,2023-10-14 18:18:31,15.08844084,0.0002906,53.2165,190.9918,89.1201,271.0124,0.00064312,9.963e-05,0.0,0 STARLINK-5112,1 53987U 22125Z   23287.76286774  .00009963  00000-0  64312-3 0  9999,2 53987  53.2165 190.9918 0002906  89.1201 271.0124 15.08844084 57147,6917.868,95.437,541.743,537.723,0.0
53987.0,STARLINK-5112,PAYLOAD,2023-10-14 21:29:18,15.08825995,0.0001672,53.2171,190.3979,104.5249,255.5929,0.00024004,3.533e-05,0.0,0 STARLINK-5112,1 53987U 22125Z   23287.89534918  .00003533  00000-0  24004-3 0  9990,2 53987  53.2171 190.3979 0001672 104.5249 255.5929 15.08825995 57092,6917.923,95.438,540.945,538.632,0.0
53987.0,STARLINK-5112,PAYLOAD,2023-10-15 00:40:04,15.08835956,0.0001438,53.2163,189.8037,105.5111,254.604,0.00099414,0.00015567,0.0,0 STARLINK-5112,1 53987U 22125Z   23288.02782923  .00015567  00000-0  99414-3 0  9994,2 53987  53.2163 189.8037 0001438 105.5111 254.6040 15.08835956 57182,6917.893,95.438,540.753,538.763,0.0
53987.0,STARLINK-5112,PAYLOAD,2023-10-15 10:12:23,15.08847206,0.0001205,53.2168,188.0183,100.7549,259.3579,0.0012948,0.00020383,0.0,0 STARLINK-5112,1 53987U 22125Z   23288.42527139  .00020383  00000-0  12948-2 0  9992,2 53987  53.2168 188.0183 0001205 100.7549 259.3579 15.08847206 57173,6917.858,95.437,540.557,538.89,0.0
53987.0,STARLINK-5112,PAYLOAD,2023-10-15 16:33:56,15.08844292,0.0001837,53.2164,186.8287,101.4218,258.698,0.00098985,0.00015502,0.0,0 STARLINK-5112,1 53987U 22125Z   23288.69023436  .00015502  00000-0  98985-3 0  9995,2 53987  53.2164 186.8287 0001837 101.4218 258.6980 15.08844292 57284,6917.867,95.437,541.003,538.461,0.0
53987.0,STARLINK-5112,PAYLOAD,2023-10-15 21:20:05,15.0884091,0.0001403,53.2158,185.938,108.1893,251.9252,0.00079622,0.00012407,0.0,0 STARLINK-5112,1 53987U 22125Z   23288.88895357  .00012407  00000-0  79622-3 0  9993,2 53987  53.2158 185.9380 0001403 108.1893 251.9252 15.08840910 57240,6917.878,95.437,540.713,538.772,0.0
53987.0,STARLINK-5112,PAYLOAD,2023-10-16 10:03:10,15.08857765,0.0001122,53.2162,183.5591,98.1228,261.9891,0.00081831,0.00012766,0.0,0 STARLINK-5112,1 53987U 22125Z   23289.41886818  .00012766  00000-0  81831-3 0  9998,2 53987  53.2162 183.5591 0001122  98.1228 261.9891 15.08857765 57393,6917.826,95.436,540.467,538.915,0.0
53987.0,STARLINK-5112,PAYLOAD,2023-10-16 16:24:43,15.08849756,0.0002067,53.2159,182.3674,90.6462,269.4767,0.00045785,7.008e-05,0.0,0 STARLINK-5112,1 53987U 22125Z   23289.68383136  .00007008  00000-0  45785-3 0  9993,2 53987  53.2159 182.3674 0002067  90.6462 269.4767 15.08849756 57435,6917.851,95.437,541.145,538.286,0.0
53987.0,STARLINK-5112,PAYLOAD,2023-10-16 19:35:29,15.08852041,0.0001313,53.2152,181.7745,95.4025,264.7117,0.00062364,9.654e-05,0.0,0 STARLINK-5112,1 53987U 22125Z   23289.81630879  .00009654  00000-0  62364-3 0  9998,2 53987  53.2152 181.7745 0001313  95.4025 264.7117 15.08852041 57383,6917.844,95.437,540.617,538.8,0.0
53987.0,STARLINK-5112,PAYLOAD,2023-10-17 09:53:57,15.0884512,0.0002106,53.2144,179.0946,90.2792,269.8441,0.00035625,5.387e-05,0.0,0 STARLINK-5112,1 53987U 22125Z   23290.41246960  .00005387  00000-0  35625-3 0  9999,2 53987  53.2144 179.0946 0002106  90.2792 269.8441 15.08845120 57546,6917.865,95.437,541.187,538.273,0.0
53987.0,STARLINK-5112,PAYLOAD,2023-10-18 01:47:48,15.08845351,0.0001514,53.2154,176.1227,92.1237,267.9929,0.00034946,5.279e-05,0.0,0 STARLINK-5112,1 53987U 22125Z   23291.07486723  .00005279  00000-0  34946-3 0  9990,2 53987  53.2154 176.1227 0001514  92.1237 267.9929 15.08845351 57573,6917.864,95.437,540.776,538.682,0.0
53987.0,STARLINK-5112,PAYLOAD,2023-10-18 09:44:44,15.0883766,0.0001906,53.2144,174.6367,85.9301,274.1909,0.00012749,1.741e-05,0.0,0 STARLINK-5112,1 53987U 22125Z   23291.40607255  .00001741  00000-0  12749-3 0  9999,2 53987  53.2144 174.6367 0001906  85.9301 274.1909 15.08837660 57692,6917.888,95.438,541.071,538.434,0.0
53987.0,STARLINK-5112,PAYLOAD,2023-10-18 22:27:49,15.08844669,0.0001631,53.2145,172.2576,88.1217,271.9962,0.00041027,6.248e-05,0.0,0 STARLINK-5112,1 53987U 22125Z   23291.93599184  .00006248  00000-0  41027-3 0  9996,2 53987  53.2145 172.2576 0001631  88.1217 271.9962 15.08844669 57708,6917.866,95.437,540.859,538.603,0.0
53987.0,STARLINK-5112,PAYLOAD,2023-10-19 15:57:03,15.08854399,0.0001411,53.2162,168.9864,87.1731,272.9422,0.0006388,9.897e-05,0.0,0 STARLINK-5112,1 53987U 22125Z   23292.66462892  .00009897  00000-0  63880-3 0  9996,2 53987  53.2162 168.9864 0001411  87.1731 272.9422 15.08854399 57887,6917.836,95.437,540.677,538.725,0.0
53987.0,STARLINK-5112,PAYLOAD,2023-10-19 22:18:35,15.08868556,9.05e-05,53.2147,167.7961,97.5124,262.5971,0.0010036,0.00015733,0.0,0 STARLINK-5112,1 53987U 22125Z   23292.92958324  .00015733  00000-0  10036-2 0  9995,2 53987  53.2147 167.7961 0000905  97.5124 262.5971 15.08868556 57854,6917.793,95.436,540.284,539.032,0.0
53987.0,STARLINK-5112,PAYLOAD,2023-10-20 01:29:22,15.08875926,0.000151,53.2159,167.202,101.7426,258.3736,0.0011835,0.00018616,0.0,0 STARLINK-5112,1 53987U 22125Z   23293.06206042  .00018616  00000-0  11835-2 0  9995,2 53987  53.2159 167.2020 0001510 101.7426 258.3736 15.08875926 57945,6917.771,95.435,540.68,538.591,0.0
53987.0,STARLINK-5112,PAYLOAD,2023-10-20 20:34:00,15.08836878,0.0001495,53.2163,163.6346,100.7247,259.3914,9.2489e-05,1.184e-05,0.0,0 STARLINK-5112,1 53987U 22125Z   23293.85694951  .00001184  00000-0  92489-4 0  9990,2 53987  53.2163 163.6346 0001495 100.7247 259.3914 15.08836878 58069,6917.89,95.438,540.789,538.721,0.0
53987.0,STARLINK-5112,PAYLOAD,2023-10-20 22:09:23,15.08835121,0.0001433,53.2159,163.3374,91.184,268.9317,0.00023034,3.379e-05,0.0,0 STARLINK-5112,1 53987U 22125Z   23293.92319119  .00003379  00000-0  23034-3 0  9995,2 53987  53.2159 163.3374 0001433  91.1840 268.9317 15.08835121 58003,6917.895,95.438,540.752,538.769,0.0
53987.0,STARLINK-5112,PAYLOAD,2023-10-21 01:20:10,15.08835556,0.0001494,53.2162,162.743,78.3814,281.7346,0.0004666,7.145e-05,0.0,0 STARLINK-5112,1 53987U 22125Z   23294.05567346  .00007145  00000-0  46660-3 0  9992,2 53987  53.2162 162.7430 0001494  78.3814 281.7346 15.08835556 58027,6917.894,95.438,540.793,538.725,0.0
53987.0,STARLINK-5112,PAYLOAD,2023-10-21 22:00:10,15.08861625,0.0001485,53.2162,158.8776,82.4956,277.6205,0.00099572,0.00015604,0.0,0 STARLINK-5112,1 53987U 22125Z   23294.91678861  .00015604  00000-0  99572-3 0  9991,2 53987  53.2162 158.8776 0001485  82.4956 277.6205 15.08861625 58157,6917.814,95.436,540.707,538.652,0.0
53987.0,STARLINK-5112,PAYLOAD,2023-10-22 18:40:11,15.08837461,0.0001311,53.2161,155.011,95.4868,264.6274,0.00016447,2.33e-05,0.0,0 STARLINK-5112,1 53987U 22125Z   23295.77791517  .00002330  00000-0  16447-3 0  9992,2 53987  53.2161 155.0110 0001311  95.4868 264.6274 15.08837461 58356,6917.888,95.438,540.66,538.846,0.0
53987.0,STARLINK-5112,PAYLOAD,2023-10-22 21:50:58,15.08838203,0.0001331,53.2161,154.4154,88.0618,272.0527,0.0003818,5.793e-05,0.0,0 STARLINK-5112,1 53987U 22125Z   23295.91039640  .00005793  00000-0  38180-3 0  9994,2 53987  53.2161 154.4154 0001331  88.0618 272.0527 15.08838203 58304,6917.886,95.438,540.672,538.83,0.0
53987.0,STARLINK-5112,PAYLOAD,2023-10-23 21:41:45,15.08847654,0.0001295,53.2156,149.956,98.9132,261.2007,0.00070113,0.0001089,0.0,0 STARLINK-5112,1 53987U 22125Z   23296.90399886  .00010890  00000-0  70113-3 0  9991,2 53987  53.2156 149.9560 0001295  98.9132 261.2007 15.08847654 58457,6917.857,95.437,540.618,538.826,0.0
53987.0,STARLINK-5112,PAYLOAD,2023-10-24 04:03:17,15.08851484,0.0001291,53.215,148.7666,100.2562,259.8576,0.00058979,9.114e-05,0.0,0 STARLINK-5112,1 53987U 22125Z   23297.16895686  .00009114  00000-0  58979-3 0  9992,2 53987  53.2150 148.7666 0001291 100.2562 259.8576 15.08851484 58567,6917.845,95.437,540.603,538.817,0.0
